SAUDISAT 2              
1 28371U 04025F   26166.58648522  .00000213  00000+0  58601-4 0  9992
2 28371  98.5507 166.5270 0023654 303.4138  56.4796 14.56683129165516
COSMOS 2407             
1 28380U 04028A   26166.48939606  .00000053  00000+0  38408-4 0  9995
2 28380  82.9608  76.0915 0037803 256.8783 276.9669 13.76334578 99644
COSMOS 2414             
1 28521U 05002A   26166.59032037  .00000068  00000+0  44083-4 0  9991
2 28521  82.9500  44.8547 0039585 335.9312  24.0000 13.87926449 83596
INMARSAT 4-F1           
1 28628U 05009A   26165.79527542  .00000034  00000+0  00000+0 0  9996
2 28628   5.1647  42.7552 0002458  42.6985 282.0547  1.00271327 77644
SJ-7                    
1 28737U 05024A   26166.57803977  .00007014  00000+0  31366-3 0  9998
2 28737  97.7278 196.6382 0016503  43.2559 316.9968 15.21522541147784
CUBESAT XI-V            
1 28895U 05043F   26166.36421164  .00001202  00000+0  19691-3 0  9995
2 28895  98.2983 321.9478 0013522 206.7180 153.3331 14.72627055101486
HINODE (SOLAR-B)        
1 29479U 06041A   26166.55020658  .00000578  00000+0  10771-3 0  9992
2 29479  98.0549 182.7269 0016057 295.4065  64.5478 14.68621093 54635
SHIJIAN-6 02B (SJ-6 02B)
1 29506U 06046B   26166.61351071  .00001491  00000+0  12017-3 0  9991
2 29506  97.7158 195.6818 0015297  64.8536 295.4273 15.01374971 70507
DMSP 5D-3 F17 (USA 191) 
1 29522U 06050A   26166.54333630  .00000031  00000+0  38331-4 0  9994
2 29522  98.7378 173.1471 0011208  63.7008 296.5316 14.14992976 12191
LAPAN-TUBSAT            
1 29709U 07001A   26166.57089669  .00001030  00000+0  12453-3 0  9997
2 29709  98.1335 165.7582 0011704 184.4344 175.6769 14.85951927 50910
HAIYANG-1B              
1 31113U 07010A   26166.53664194  .00000065  00000+0  40480-4 0  9996
2 31113  98.3494 148.4458 0012918 201.3718 158.6928 14.31026508   408
COSMO-SKYMED 2          
1 32376U 07059A   26166.60830394  .00000345  00000+0  49909-4 0  9992
2 32376  97.8885 350.2291 0001373  86.5213 273.6157 14.82153933  1774
CARTOSAT-2A             
1 32783U 08021A   26166.62600586  .00001034  00000+0  14578-3 0  9993
2 32783  97.7637 215.3878 0013111 113.3058 246.9535 14.79237867978570
CUTE-1.7+APD II (CO-65) 
1 32785U 08021C   26166.59150092  .00003848  00000+0  24445-3 0  9992
2 32785  97.8271 147.9768 0009975  44.1299 316.0723 15.09439257984954
SEEDS II (CO-66)        
1 32791U 08021J   26166.56872795  .00015199  00000+0  48345-3 0  9994
2 32791  97.7511 164.3889 0001297   9.9046 350.2220 15.32704207987043
YUBILEINY (RS30)        
1 32953U 08025A   26166.56937948  .00000093  00000+0  60035-3 0  9997
2 32953  82.5039 356.4473 0018919 317.5762  42.3854 12.43179648819494
FENGYUN 3A              
1 32958U 08026A   26166.56717479  .00000046  00000+0  42513-4 0  9998
2 32958  98.6883 107.4306 0009534 127.8836 232.3204 14.19570760935179
HUANJING 1A (HJ-1A)     
1 33320U 08041A   26166.61548698  .00000569  00000+0  74282-4 0  9998
2 33320  97.6675 152.5144 0019830 139.4914 220.7781 14.83982449958176
HUANJING 1B (HJ-1B)     
1 33321U 08041B   26166.65130595  .00000582  00000+0  76576-4 0  9999
2 33321  97.6508 155.7249 0035854 186.0943 173.9841 14.83313137958186
SHIJIAN-6 03A (SJ-6 03A)
1 33408U 08053A   26166.59782237  .00004423  00000+0  22619-3 0  9993
2 33408  97.8409 199.8627 0011879  26.2762 333.9070 15.17154182962726
SHIJIAN-6 03B (SJ-6 03B)
1 33409U 08053B   26166.63644726  .00001046  00000+0  79459-4 0  9992
2 33409  97.8575 186.5023 0021052  50.0407 310.2663 15.04305593962512
